[Satellite]
VERSION=1.1
NAME=COSMOS 2529 (757)
NICKNAME=COSMOS 2529 (757)
TLE1=1 43687U 18086A   20157.57286201 -.00000015  00000-0  00000-0 0  9994
TLE2=2 43687  64.5641 267.5821 0009397 267.1670 164.5954  2.13101955 12356
STATUS=0
